NORAD_CAT_ID,OBJECT_NAME,OBJECT_TYPE,EPOCH,MEAN_MOTION,ECCENTRICITY,INCLINATION,RA_OF_ASC_NODE,ARG_OF_PERICENTER,MEAN_ANOMALY,BSTAR,MEAN_MOTION_DOT,MEAN_MOTION_DDOT,TLE_LINE0,TLE_LINE1,TLE_LINE2,SEMIMAJOR_AXIS,PERIOD,APOGEE,PERIGEE,DECAYED
56453.0,STARLINK-5935,PAYLOAD,2023-09-27 07:26:35,14.98325231,0.0002937,69.9999,239.6218,263.6084,96.4741,-9.0584e-05,-1.174e-05,0.0,0 STARLINK-5935,1 56453U 23064F   23270.31013325 -.00001174  00000-0 -90584-4 0  9995,2 56453  69.9999 239.6218 0002937 263.6084  96.4741 14.98325231 21278,6950.208,96.107,574.114,570.031,0.0
56453.0,STARLINK-5935,PAYLOAD,2023-09-28 02:40:12,14.98323761,0.0003018,69.9998,237.6027,269.3406,90.7407,-9.4872e-05,-1.225e-05,0.0,0 STARLINK-5935,1 56453U 23064F   23271.11125670 -.00001225  00000-0 -94872-4 0  9992,2 56453  69.9998 237.6027 0003018 269.3406  90.7407 14.98323761 21750,6950.212,96.107,574.175,569.98,0.0
56453.0,STARLINK-5935,PAYLOAD,2023-09-28 07:28:36,14.98325456,0.0002945,69.9996,237.0976,264.7639,95.3184,-7.9746e-05,-1.044e-05,0.0,0 STARLINK-5935,1 56453U 23064F   23271.31153579 -.00001044  00000-0 -79746-4 0  9995,2 56453  69.9996 237.0976 0002945 264.7639  95.3184 14.98325456 21420,6950.207,96.107,574.119,570.025,0.0
56453.0,STARLINK-5935,PAYLOAD,2023-09-28 21:53:49,14.98322776,0.0002947,69.9994,235.5825,266.575,93.5072,0.00012294,1.374e-05,0.0,0 STARLINK-5935,1 56453U 23064F   23271.91237279  .00001374  00000-0  12294-3 0  9999,2 56453  69.9994 235.5825 0002947 266.5750  93.5072 14.98322776 21518,6950.215,96.107,574.128,570.032,0.0
56453.0,STARLINK-5935,PAYLOAD,2023-09-29 07:30:36,14.98331799,0.0002995,69.9996,234.5728,269.2936,90.788,0.00012536,1.403e-05,0.0,0 STARLINK-5935,1 56453U 23064F   23272.31292814  .00001403  00000-0  12536-3 0  9992,2 56453  69.9996 234.5728 0002995 269.2936  90.7880 14.98331799 21937,6950.187,96.107,574.134,569.971,0.0
56453.0,STARLINK-5935,PAYLOAD,2023-09-30 04:20:21,14.98334503,0.0003003,69.9997,232.3843,270.3888,89.6927,0.00011925,1.33e-05,0.0,0 STARLINK-5935,1 56453U 23064F   23273.18080555  .00001330  00000-0  11925-3 0  9995,2 56453  69.9997 232.3843 0003003 270.3888  89.6927 14.98334503 21702,6950.179,96.107,574.131,569.957,0.0
56453.0,STARLINK-5935,PAYLOAD,2023-09-30 07:32:37,14.98337682,0.000297,69.9999,232.0479,270.2801,89.8018,0.00015024,1.7e-05,0.0,0 STARLINK-5935,1 56453U 23064F   23273.31432207  .00001700  00000-0  15024-3 0  9990,2 56453  69.9999 232.0479 0002970 270.2801  89.8018 14.98337682 22088,6950.169,96.107,574.098,569.97,0.0
56453.0,STARLINK-5935,PAYLOAD,2023-10-01 01:10:07,14.98327622,0.0002534,70.001,230.1972,274.2789,85.808,-6.378e-05,-8.54e-06,0.0,0 STARLINK-5935,1 56453U 23064F   23274.04869437 -.00000854  00000-0 -63780-4 0  9994,2 56453  70.0010 230.1972 0002534 274.2789  85.8080 14.98327622 22197,6950.2,96.107,573.826,570.304,0.0
56453.0,STARLINK-5935,PAYLOAD,2023-10-01 07:34:39,14.98306425,0.0002381,70.0009,229.5234,273.7482,86.3404,0.00039689,4.643e-05,0.0,0 STARLINK-5935,1 56453U 23064F   23274.31573716  .00004643  00000-0  39689-3 0  9994,2 56453  70.0009 229.5234 0002381 273.7482  86.3404 14.98306425 22231,6950.266,96.109,573.786,570.476,0.0
56453.0,STARLINK-5935,PAYLOAD,2023-10-01 13:59:11,14.98327071,0.0002592,70.0011,228.8503,258.6434,101.4434,-5.9878e-05,-8.07e-06,0.0,0 STARLINK-5935,1 56453U 23064F   23274.58277323 -.00000807  00000-0 -59878-4 0  9991,2 56453  70.0011 228.8503 0002592 258.6434 101.4434 14.98327071 22274,6950.202,96.107,573.868,570.265,0.0
56453.0,STARLINK-5935,PAYLOAD,2023-10-02 14:01:12,14.9833222,0.0002626,70.0002,226.326,270.8875,89.1984,-0.00010694,-1.369e-05,0.0,0 STARLINK-5935,1 56453U 23064F   23275.58417058 -.00001369  00000-0 -10694-3 0  9999,2 56453  70.0002 226.3260 0002626 270.8875  89.1984 14.98332220 22421,6950.186,96.107,573.876,570.226,0.0
56453.0,STARLINK-5935,PAYLOAD,2023-10-03 14:03:12,14.98335399,0.0002649,70.0004,223.8013,272.8857,87.1999,2.2417e-05,1.75e-06,0.0,0 STARLINK-5935,1 56453U 23064F   23276.58556510  .00000175  00000-0  22417-4 0  9996,2 56453  70.0004 223.8013 0002649 272.8857  87.1999 14.98335399 22219,6950.176,96.107,573.882,570.2,0.0
56453.0,STARLINK-5935,PAYLOAD,2023-10-04 06:04:34,14.98325311,0.000306,70.0003,222.1188,276.552,83.529,5.758e-05,5.94e-06,0.0,0 STARLINK-5935,1 56453U 23064F   23277.25317238  .00000594  00000-0  57580-4 0  9997,2 56453  70.0003 222.1188 0003060 276.5520  83.5290 14.98325311 22676,6950.207,96.107,574.199,569.946,0.0
56453.0,STARLINK-5935,PAYLOAD,2023-10-04 14:05:14,14.98330285,0.0002642,70.001,221.2777,268.5845,91.5012,1.7692e-06,-7.2e-07,0.0,0 STARLINK-5935,1 56453U 23064F   23277.58697098 -.00000072  00000-0  17692-5 0  9991,2 56453  70.0010 221.2777 0002642 268.5845  91.5012 14.98330285 22367,6950.192,96.107,573.893,570.221,0.0
56453.0,STARLINK-5935,PAYLOAD,2023-10-04 22:05:54,14.98330513,0.0002788,70.0012,220.4361,273.9358,86.1482,1.3309e-05,6.6e-07,0.0,0 STARLINK-5935,1 56453U 23064F   23277.92077045  .00000066  00000-0  13309-4 0  9995,2 56453  70.0012 220.4361 0002788 273.9358  86.1482 14.98330513 22410,6950.191,96.107,573.994,570.119,0.0
56453.0,STARLINK-5935,PAYLOAD,2023-10-05 02:54:18,14.98337651,0.000281,70.0002,219.9288,267.5599,92.5238,3.0829e-05,2.75e-06,0.0,0 STARLINK-5935,1 56453U 23064F   23278.12104441  .00000275  00000-0  30829-4 0  9997,2 56453  70.0002 219.9288 0002810 267.5599  92.5238 14.98337651 22805,6950.169,96.107,573.987,570.081,0.0
56453.0,STARLINK-5935,PAYLOAD,2023-10-05 06:06:34,14.98337545,0.0002765,70.0004,219.592,265.9642,94.1201,8.9986e-05,9.81e-06,0.0,0 STARLINK-5935,1 56453U 23064F   23278.25456128  .00000981  00000-0  89986-4 0  9995,2 56453  70.0004 219.5920 0002765 265.9642  94.1201 14.98337545 22468,6950.17,96.107,573.956,570.113,0.0
56453.0,STARLINK-5935,PAYLOAD,2023-10-05 20:31:47,14.98328237,0.0002775,70.0007,218.0768,270.6294,89.4547,6.1762e-05,6.44e-06,0.0,0 STARLINK-5935,1 56453U 23064F   23278.85540718  .00000644  00000-0  61762-4 0  9998,2 56453  70.0007 218.0768 0002775 270.6294  89.4547 14.98328237 22910,6950.198,96.107,573.992,570.135,0.0
56453.0,STARLINK-5935,PAYLOAD,2023-10-05 22:07:55,14.98327249,0.0002799,70.0005,217.9086,270.8539,89.23,5.2783e-05,5.37e-06,0.0,0 STARLINK-5935,1 56453U 23064F   23278.92216813  .00000537  00000-0  52783-4 0  9996,2 56453  70.0005 217.9086 0002799 270.8539  89.2300 14.98327249 22567,6950.201,96.107,574.012,570.121,0.0
56453.0,STARLINK-5935,PAYLOAD,2023-10-06 06:08:35,14.98333073,0.0002663,70.0012,217.0679,271.5665,88.5189,4.0769e-05,3.94e-06,0.0,0 STARLINK-5935,1 56453U 23064F   23279.25596534  .00000394  00000-0  40769-4 0  9996,2 56453  70.0012 217.0679 0002663 271.5665  88.5189 14.98333073 22617,6950.183,96.107,573.899,570.198,0.0
56453.0,STARLINK-5935,PAYLOAD,2023-10-06 22:09:56,14.98324406,0.0002667,70.0015,215.3851,272.7038,87.3815,-5.9978e-05,-8.08e-06,0.0,0 STARLINK-5935,1 56453U 23064F   23279.92357383 -.00000808  00000-0 -59978-4 0  9991,2 56453  70.0015 215.3851 0002667 272.7038  87.3815 14.98324406 22718,6950.21,96.107,573.929,570.222,0.0
56453.0,STARLINK-5935,PAYLOAD,2023-10-07 01:22:12,14.98326342,0.0002558,70.002,215.0496,261.4338,98.6531,-6.745e-05,-8.98e-06,0.0,0 STARLINK-5935,1 56453U 23064F   23280.05709235 -.00000898  00000-0 -67450-4 0  9997,2 56453  70.0020 215.0496 0002558 261.4338  98.6531 14.98326342 23096,6950.204,96.107,573.847,570.291,0.0
56453.0,STARLINK-5935,PAYLOAD,2023-10-07 12:35:09,14.98325652,0.0003203,70.0004,213.8698,270.9369,89.1423,-0.00021783,-2.691e-05,0.0,0 STARLINK-5935,1 56453U 23064F   23280.52441566 -.00002691  00000-0 -21783-3 0  9990,2 56453  70.0004 213.8698 0003203 270.9369  89.1423 14.98325652 22801,6950.206,96.107,574.297,569.845,0.0
56453.0,STARLINK-5935,PAYLOAD,2023-10-07 18:59:42,14.9831625,0.0002466,70.0013,213.1967,274.6142,85.4736,-0.00012213,-1.549e-05,0.0,0 STARLINK-5935,1 56453U 23064F   23280.79146339 -.00001549  00000-0 -12213-3 0  9998,2 56453  70.0013 213.1967 0002466 274.6142  85.4736 14.98316250 23208,6950.235,96.108,573.814,570.386,0.0
56453.0,STARLINK-5935,PAYLOAD,2023-10-07 22:11:58,14.98311962,0.0002733,70.002,212.8616,271.8482,88.2364,-0.00011499,-1.464e-05,0.0,0 STARLINK-5935,1 56453U 23064F   23280.92498637 -.00001464  00000-0 -11499-3 0  9995,2 56453  70.0020 212.8616 0002733 271.8482  88.2364 14.98311962 22860,6950.249,96.108,574.013,570.214,0.0
56453.0,STARLINK-5935,PAYLOAD,2023-10-08 12:37:10,14.98331177,0.0002572,70.0017,211.3444,277.5087,82.578,-3.7786e-05,-5.44e-06,0.0,0 STARLINK-5935,1 56453U 23064F   23281.52581644 -.00000544  00000-0 -37786-4 0  9999,2 56453  70.0017 211.3444 0002572 277.5087  82.5780 14.98331177 22953,6950.189,96.107,573.842,570.267,0.0
56453.0,STARLINK-5935,PAYLOAD,2023-10-08 19:01:41,14.98334317,0.000294,70.0013,210.6716,269.5977,90.4846,0.00018454,2.11e-05,0.0,0 STARLINK-5935,1 56453U 23064F   23281.79284714  .00002110  00000-0  18454-3 0  9995,2 56453  70.0013 210.6716 0002940 269.5977  90.4846 14.98334317 23356,6950.18,96.107,574.088,570.001,0.0
56453.0,STARLINK-5935,PAYLOAD,2023-10-08 20:37:49,14.98338628,0.0002854,70.0013,210.505,267.0574,93.0258,0.00020356,2.337e-05,0.0,0 STARLINK-5935,1 56453U 23064F   23281.85960401  .00002337  00000-0  20356-3 0  9991,2 56453  70.0013 210.5050 0002854 267.0574  93.0258 14.98338628 23003,6950.166,96.106,574.015,570.048,0.0
56453.0,STARLINK-5935,PAYLOAD,2023-10-09 03:02:21,14.98344964,0.0002789,70.0012,209.83,267.2561,92.8279,0.0002799,3.25e-05,0.0,0 STARLINK-5935,1 56453U 23064F   23282.12663607  .00003250  00000-0  27990-3 0  9996,2 56453  70.0012 209.8300 0002789 267.2561  92.8279 14.98344964 23400,6950.147,96.106,573.95,570.073,0.0
56453.0,STARLINK-5935,PAYLOAD,2023-10-09 04:38:29,14.98349201,0.0002804,70.0011,209.662,266.6792,93.4046,0.00031012,3.611e-05,0.0,0 STARLINK-5935,1 56453U 23064F   23282.19339198  .00003611  00000-0  31012-3 0  9999,2 56453  70.0011 209.6620 0002804 266.6792  93.4046 14.98349201 23058,6950.134,96.106,573.947,570.05,0.0
